GUOWANG GROUP 20 OBJECT*
1 68132U 26047D   26083.82212781 -.00000102  00000+0  32409-4 0  9994
2 68132  50.0048   8.7665 0002416   7.3102 352.7836 14.00513037  1680
GUOWANG GROUP 20 OBJECT*
1 68133U 26047E   26083.32146819 -.00000126  00000+0  15966-4 0  9993
2 68133  49.9979  10.8404 0003230 188.5214 171.5635 14.01339008  1620
GUOWANG GROUP 20 OBJECT*
1 68134U 26047F   26083.10517479 -.00000032  00000+0  77668-4 0  9997
2 68134  50.0123  11.6502 0000475 222.9253 137.1614 14.01903676  1585
GUOWANG GROUP 20 OBJECT*
1 68135U 26047G   26085.74432800  .00000018  00000+0  11069-3 0  9999
2 68135  50.0409   0.8903 0004806 213.0056 147.0548 14.01583953  1962
GUOWANG GROUP 20 OBJECT*
1 68136U 26047H   26084.03205513 -.00000099  00000+0  33918-4 0  9998
2 68136  49.9530   7.8688 0014532 103.7924 256.4596 14.01074305  1715
GUOWANG GROUP 20 OBJECT*
1 68137U 26047J   26082.88983446 -.00000137  00000+0  91454-5 0  9991
2 68137  50.0081  12.5219 0000175 124.6965 235.3956 14.02259904  1568
CZ-8A R/B               
1 68138U 26047K   26087.29699193 -.00000097  00000+0  30964-4 0  9998
2 68138  49.9539 353.7305 0044755 202.2366 157.6601 14.12232008  2189
SHIYAN-30 03            
1 68139U 26048A   26087.24478108  .00002860  00000+0  28138-3 0  9994
2 68139  35.0011  32.8588 0003264 353.5957   6.4706 14.91720163  2273
SHIYAN-30 04            
1 68140U 26048B   26087.24549467  .00002735  00000+0  26913-3 0  9993
2 68140  34.9926  32.8609 0001774 349.6595  10.4073 14.91728908  2277
CZ-2D R/B               
1 68141U 26048C   26087.27539200  .00001748  00000+0  15711-3 0  9998
2 68141  35.1306  32.4760 0015037 129.2747 230.9298 14.95559774  2281
STARLINK-36604          
1 68142U 26049A   26087.21319542  .00083027  00000+0  42923-3 0  9994
2 68142  97.2841 107.3636 0001061 126.1750 233.9617 15.80859890  2332
STARLINK-36995          
1 68143U 26049B   26087.16668981 -.00125413  00000+0 -66139-3 0  9996
2 68143  97.2838 107.3152 0000925  75.8621  24.0401 15.80884303  3593
STARLINK-37020          
1 68144U 26049C   26087.21093918  .00197061  00000+0  10026-2 0  9994
2 68144  97.2835 107.3665 0001497 132.3297 227.8099 15.80901302  2339
STARLINK-36244          
1 68145U 26049D   26087.16668981 -.00139221  00000+0 -94569-3 0  9998
2 68145  97.2838 107.3164 0001326  72.5119  29.9798 15.75241131  3605
STARLINK-36980          
1 68146U 26049E   26087.21018902  .00124517  00000+0  63974-3 0  9993
2 68146  97.2839 107.3665 0001519 105.3201 254.8235 15.80878306  2334
STARLINK-37055          
1 68147U 26049F   26087.21169275  .00116535  00000+0  59941-3 0  9994
2 68147  97.2839 107.3645 0001253 110.5636 249.5767 15.80875621  2336
