[{"OBJECT_NAME":"GUOWANG GROUP 20 OBJECT D","OBJECT_ID":"2026-047D","EPOCH":"2026-03-24T19:43:51.842784","MEAN_MOTION":14.00513037,"ECCENTRICITY":0.00024162,"INCLINATION":50.0048,"RA_OF_ASC_NODE":8.7665,"ARG_OF_PERICENTER":7.3102,"MEAN_ANOMALY":352.7836,"EPHEMERIS_TYPE":0,"CLASSIFICATION_TYPE":"U","NORAD_CAT_ID":68132,"ELEMENT_SET_NO":999,"REV_AT_EPOCH":168,"BSTAR":3.2408862e-5,"MEAN_MOTION_DOT":-1.02e-6,"MEAN_MOTION_DDOT":0},{"OBJECT_NAME":"GUOWANG GROUP 20 OBJECT E","OBJECT_ID":"2026-047E","EPOCH":"2026-03-24T07:42:54.851616","MEAN_MOTION":14.01339008,"ECCENTRICITY":0.00032302,"INCLINATION":49.9979,"RA_OF_ASC_NODE":10.8404,"ARG_OF_PERICENTER":188.5214,"MEAN_ANOMALY":171.5635,"EPHEMERIS_TYPE":0,"CLASSIFICATION_TYPE":"U","NORAD_CAT_ID":68133,"ELEMENT_SET_NO":999,"REV_AT_EPOCH":162,"BSTAR":1.5966081e-5,"MEAN_MOTION_DOT":-1.26e-6,"MEAN_MOTION_DDOT":0},{"OBJECT_NAME":"GUOWANG GROUP 20 OBJECT F","OBJECT_ID":"2026-047F","EPOCH":"2026-03-24T02:31:27.101856","MEAN_MOTION":14.01903676,"ECCENTRICITY":4.752e-5,"INCLINATION":50.0123,"RA_OF_ASC_NODE":11.6502,"ARG_OF_PERICENTER":222.9253,"MEAN_ANOMALY":137.1614,"EPHEMERIS_TYPE":0,"CLASSIFICATION_TYPE":"U","NORAD_CAT_ID":68134,"ELEMENT_SET_NO":999,"REV_AT_EPOCH":158,"BSTAR":7.7668349e-5,"MEAN_MOTION_DOT":-3.2e-7,"MEAN_MOTION_DDOT":0},{"OBJECT_NAME":"GUOWANG GROUP 20 OBJECT G","OBJECT_ID":"2026-047G","EPOCH":"2026-03-26T17:51:49.939200","MEAN_MOTION":14.01583953,"ECCENTRICITY":0.00048065,"INCLINATION":50.0409,"RA_OF_ASC_NODE":0.8903,"ARG_OF_PERICENTER":213.0056,"MEAN_ANOMALY":147.0548,"EPHEMERIS_TYPE":0,"CLASSIFICATION_TYPE":"U","NORAD_CAT_ID":68135,"ELEMENT_SET_NO":999,"REV_AT_EPOCH":196,"BSTAR":0.00011069373,"MEAN_MOTION_DOT":1.8e-7,"MEAN_MOTION_DDOT":0},{"OBJECT_NAME":"GUOWANG GROUP 20 OBJECT H","OBJECT_ID":"2026-047H","EPOCH":"2026-03-25T00:46:09.563232","MEAN_MOTION":14.01074305,"ECCENTRICITY":0.0014532,"INCLINATION":49.953,"RA_OF_ASC_NODE":7.8688,"ARG_OF_PERICENTER":103.7924,"MEAN_ANOMALY":256.4596,"EPHEMERIS_TYPE":0,"CLASSIFICATION_TYPE":"U","NORAD_CAT_ID":68136,"ELEMENT_SET_NO":999,"REV_AT_EPOCH":171,"BSTAR":3.3918e-5,"MEAN_MOTION_DOT":-9.9e-7,"MEAN_MOTION_DDOT":0},{"OBJECT_NAME":"GUOWANG GROUP 20 OBJECT J","OBJECT_ID":"2026-047J","EPOCH":"2026-03-23T21:21:21.697344","MEAN_MOTION":14.02259904,"ECCENTRICITY":1.75e-5,"INCLINATION":50.0081,"RA_OF_ASC_NODE":12.5219,"ARG_OF_PERICENTER":124.6965,"MEAN_ANOMALY":235.3956,"EPHEMERIS_TYPE":0,"CLASSIFICATION_TYPE":"U","NORAD_CAT_ID":68137,"ELEMENT_SET_NO":999,"REV_AT_EPOCH":156,"BSTAR":9.1454e-6,"MEAN_MOTION_DOT":-1.37e-6,"MEAN_MOTION_DDOT":0},{"OBJECT_NAME":"CZ-8A R/B","OBJECT_ID":"2026-047K","EPOCH":"2026-03-28T07:07:40.102752","MEAN_MOTION":14.12232008,"ECCENTRICITY":0.0044755,"INCLINATION":49.9539,"RA_OF_ASC_NODE":353.7305,"ARG_OF_PERICENTER":202.2366,"MEAN_ANOMALY":157.6601,"EPHEMERIS_TYPE":0,"CLASSIFICATION_TYPE":"U","NORAD_CAT_ID":68138,"ELEMENT_SET_NO":999,"REV_AT_EPOCH":218,"BSTAR":3.0964478e-5,"MEAN_MOTION_DOT":-9.7e-7,"MEAN_MOTION_DDOT":0},{"OBJECT_NAME":"SHIYAN-30 03","OBJECT_ID":"2026-048A","EPOCH":"2026-03-28T05:52:29.085312","MEAN_MOTION":14.91720163,"ECCENTRICITY":0.0003264,"INCLINATION":35.0011,"RA_OF_ASC_NODE":32.8588,"ARG_OF_PERICENTER":353.5957,"MEAN_ANOMALY":6.4706,"EPHEMERIS_TYPE":0,"CLASSIFICATION_TYPE":"U","NORAD_CAT_ID":68139,"ELEMENT_SET_NO":999,"REV_AT_EPOCH":227,"BSTAR":0.00028137562,"MEAN_MOTION_DOT":2.86e-5,"MEAN_MOTION_DDOT":0},{"OBJECT_NAME":"SHIYAN-30 04","OBJECT_ID":"2026-048B","EPOCH":"2026-03-28T05:53:30.739488","MEAN_MOTION":14.91728908,"ECCENTRICITY":0.00017748,"INCLINATION":34.9926,"RA_OF_ASC_NODE":32.8609,"ARG_OF_PERICENTER":349.6595,"MEAN_ANOMALY":10.4073,"EPHEMERIS_TYPE":0,"CLASSIFICATION_TYPE":"U","NORAD_CAT_ID":68140,"ELEMENT_SET_NO":999,"REV_AT_EPOCH":227,"BSTAR":0.00026913373,"MEAN_MOTION_DOT":2.735e-5,"MEAN_MOTION_DDOT":0},{"OBJECT_NAME":"CZ-2D R/B","OBJECT_ID":"2026-048C","EPOCH":"2026-03-28T06:36:33.868800","MEAN_MOTION":14.95559774,"ECCENTRICITY":0.00150379,"INCLINATION":35.1306,"RA_OF_ASC_NODE":32.476,"ARG_OF_PERICENTER":129.2747,"MEAN_ANOMALY":230.9298,"EPHEMERIS_TYPE":0,"CLASSIFICATION_TYPE":"U","NORAD_CAT_ID":68141,"ELEMENT_SET_NO":999,"REV_AT_EPOCH":228,"BSTAR":0.00015711015,"MEAN_MOTION_DOT":1.748e-5,"MEAN_MOTION_DDOT":0},{"OBJECT_NAME":"STARLINK-36604","OBJECT_ID":"2026-049A","EPOCH":"2026-03-28T05:07:00.084288","MEAN_MOTION":15.8085989,"ECCENTRICITY":0.0001061,"INCLINATION":97.2841,"RA_OF_ASC_NODE":107.3636,"ARG_OF_PERICENTER":126.175,"MEAN_ANOMALY":233.9617,"EPHEMERIS_TYPE":0,"CLASSIFICATION_TYPE":"U","NORAD_CAT_ID":68142,"ELEMENT_SET_NO":999,"REV_AT_EPOCH":233,"BSTAR":0.00042923029,"MEAN_MOTION_DOT":0.00083027,"MEAN_MOTION_DDOT":0},{"OBJECT_NAME":"STARLINK-36995","OBJECT_ID":"2026-049B","EPOCH":"2026-03-28T04:00:01.999584","MEAN_MOTION":15.80884303,"ECCENTRICITY":9.256e-5,"INCLINATION":97.2838,"RA_OF_ASC_NODE":107.3152,"ARG_OF_PERICENTER":75.8621,"MEAN_ANOMALY":24.0401,"EPHEMERIS_TYPE":0,"CLASSIFICATION_TYPE":"U","NORAD_CAT_ID":68143,"ELEMENT_SET_NO":999,"REV_AT_EPOCH":359,"BSTAR":-0.00066139349,"MEAN_MOTION_DOT":-0.00125413,"MEAN_MOTION_DDOT":0},{"OBJECT_NAME":"STARLINK-37020","OBJECT_ID":"2026-049C","EPOCH":"2026-03-28T05:03:45.145152","MEAN_MOTION":15.80901302,"ECCENTRICITY":0.00014971,"INCLINATION":97.2835,"RA_OF_ASC_NODE":107.3665,"ARG_OF_PERICENTER":132.3297,"MEAN_ANOMALY":227.8099,"EPHEMERIS_TYPE":0,"CLASSIFICATION_TYPE":"U","NORAD_CAT_ID":68144,"ELEMENT_SET_NO":999,"REV_AT_EPOCH":233,"BSTAR":0.0010025571,"MEAN_MOTION_DOT":0.00197061,"MEAN_MOTION_DDOT":0},{"OBJECT_NAME":"STARLINK-36244","OBJECT_ID":"2026-049D","EPOCH":"2026-03-28T04:00:01.999584","MEAN_MOTION":15.75241131,"ECCENTRICITY":0.00013264,"INCLINATION":97.2838,"RA_OF_ASC_NODE":107.3164,"ARG_OF_PERICENTER":72.5119,"MEAN_ANOMALY":29.9798,"EPHEMERIS_TYPE":0,"CLASSIFICATION_TYPE":"U","NORAD_CAT_ID":68145,"ELEMENT_SET_NO":999,"REV_AT_EPOCH":360,"BSTAR":-0.00094568828,"MEAN_MOTION_DOT":-0.00139221,"MEAN_MOTION_DDOT":0},{"OBJECT_NAME":"STARLINK-36980","OBJECT_ID":"2026-049E","EPOCH":"2026-03-28T05:02:40.331328","MEAN_MOTION":15.80878306,"ECCENTRICITY":0.00015192,"INCLINATION":97.2839,"RA_OF_ASC_NODE":107.3665,"ARG_OF_PERICENTER":105.3201,"MEAN_ANOMALY":254.8235,"EPHEMERIS_TYPE":0,"CLASSIFICATION_TYPE":"U","NORAD_CAT_ID":68146,"ELEMENT_SET_NO":999,"REV_AT_EPOCH":233,"BSTAR":0.0006397402,"MEAN_MOTION_DOT":0.00124517,"MEAN_MOTION_DDOT":0},{"OBJECT_NAME":"STARLINK-37055","OBJECT_ID":"2026-049F","EPOCH":"2026-03-28T05:04:50.253600","MEAN_MOTION":15.80875621,"ECCENTRICITY":0.00012534,"INCLINATION":97.2839,"RA_OF_ASC_NODE":107.3645,"ARG_OF_PERICENTER":110.5636,"MEAN_ANOMALY":249.5767,"EPHEMERIS_TYPE":0,"CLASSIFICATION_TYPE":"U","NORAD_CAT_ID":68147,"ELEMENT_SET_NO":999,"REV_AT_EPOCH":233,"BSTAR":0.00059941118,"MEAN_MOTION_DOT":0.00116535,"MEAN_MOTION_DDOT":0}]
